NORAD_CAT_ID,OBJECT_NAME,OBJECT_TYPE,EPOCH,MEAN_MOTION,ECCENTRICITY,INCLINATION,RA_OF_ASC_NODE,ARG_OF_PERICENTER,MEAN_ANOMALY,BSTAR,MEAN_MOTION_DOT,MEAN_MOTION_DDOT,TLE_LINE0,TLE_LINE1,TLE_LINE2,SEMIMAJOR_AXIS,PERIOD,APOGEE,PERIGEE,DECAYED
53901.0,STARLINK-5024,PAYLOAD,2022-12-20 07:12:58,15.08846206,0.0001974,53.2171,200.4436,51.066,309.0508,5.5972e-05,6.03e-06,0.0,0 STARLINK-5024,1 53901U 22119R   22354.30068005  .00000603  00000-0  55972-4 0  9992,2 53901  53.2171 200.4436 0001974  51.0660 309.0508 15.08846206 13826,6917.861,95.437,541.092,538.361,0.0
53901.0,STARLINK-5024,PAYLOAD,2022-12-20 13:34:31,15.08845096,0.0001875,53.2168,199.2543,49.2942,310.8213,9.6073e-05,1.241e-05,0.0,0 STARLINK-5024,1 53901U 22119R   22354.56563776  .00001241  00000-0  96073-4 0  9991,2 53901  53.2168 199.2543 0001875  49.2942 310.8213 15.08845096 14288,6917.865,95.437,541.0269999999998,538.433,0.0
53901.0,STARLINK-5024,PAYLOAD,2022-12-20 23:06:50,15.08837002,0.0001922,53.2174,197.4703,49.6285,310.4875,7.548199999999999e-05,9.13e-06,0.0,0 STARLINK-5024,1 53901U 22119R   22354.96308272  .00000913  00000-0  75482-4 0  9999,2 53901  53.2174 197.4703 0001922  49.6285 310.4875 15.08837002 13928,6917.89,95.438,541.0840000000002,538.425,0.0
53901.0,STARLINK-5024,PAYLOAD,2022-12-21 13:25:18,15.08835819,0.0001925,53.2172,194.7943,49.8253,310.2907,-9.5362e-06,-4.4e-06,0.0,0 STARLINK-5024,1 53901U 22119R   22355.55924705 -.00000440  00000-0 -95362-5 0  9997,2 53901  53.2172 194.7943 0001925  49.8253 310.2907 15.08835819 14437,6917.893,95.438,541.09,538.4259999999998,0.0
53901.0,STARLINK-5024,PAYLOAD,2022-12-22 00:33:01,15.08831885,0.0001869,53.2171,192.7123,50.1568,309.9589,-9.9287e-05,-1.868e-05,0.0,0 STARLINK-5024,1 53901U 22119R   22356.02293411 -.00001868  00000-0 -99287-4 0  9997,2 53901  53.2171 192.7123 0001869  50.1568 309.9589 15.08831885 14086,6917.905,95.438,541.063,538.477,0.0
53901.0,STARLINK-5024,PAYLOAD,2022-12-22 06:54:34,15.08833782,0.0001827,53.2172,191.5227,50.4347,309.6807,-0.00010087,-1.893e-05,0.0,0 STARLINK-5024,1 53901U 22119R   22356.28789360 -.00001893  00000-0 -10087-3 0  9996,2 53901  53.2172 191.5227 0001827  50.4347 309.6807 15.08833782 14540,6917.899,95.438,541.028,538.5,0.0
53901.0,STARLINK-5024,PAYLOAD,2022-12-22 16:26:52,15.08834254,0.0001821,53.2172,189.7384,50.1167,309.9985,-8.578e-05,-1.653e-05,0.0,0 STARLINK-5024,1 53901U 22119R   22356.68533375 -.00001653  00000-0 -85780-4 0  9990,2 53901  53.2172 189.7384 0001821  50.1167 309.9985 15.08834254 14606,6917.898,95.438,541.023,538.503,0.0
53901.0,STARLINK-5024,PAYLOAD,2022-12-23 14:42:16,15.08830252,0.0001809,53.2172,185.5748,52.557,307.5586,3.3157e-05,2.4e-06,0.0,0 STARLINK-5024,1 53901U 22119R   22357.61269566  .00000240  00000-0  33157-4 0  9992,2 53901  53.2172 185.5748 0001809  52.5570 307.5586 15.08830252 14328,6917.91,95.438,541.0269999999998,538.524,0.0
53901.0,STARLINK-5024,PAYLOAD,2022-12-23 16:17:39,15.08831765,0.0001863,53.2171,185.2779,51.2803,308.8355,4.675300000000001e-05,4.56e-06,0.0,0 STARLINK-5024,1 53901U 22119R   22357.67893475  .00000456  00000-0  46753-4 0  9995,2 53901  53.2171 185.2779 0001863  51.2803 308.8355 15.08831765 14758,6917.906,95.438,541.059,538.482,0.0
53901.0,STARLINK-5024,PAYLOAD,2022-12-23 22:39:12,15.08831601,0.0001933,53.2169,184.0887,51.8468,308.2698,7.8514e-05,9.61e-06,0.0,0 STARLINK-5024,1 53901U 22119R   22357.94389508  .00000961  00000-0  78514-4 0  9993,2 53901  53.2169 184.0887 0001933  51.8468 308.2698 15.08831601 14790,6917.906,95.438,541.1080000000002,538.434,0.0
53901.0,STARLINK-5024,PAYLOAD,2022-12-24 17:43:50,15.08838343,0.0001973,53.217,180.5206,53.416,306.7014,7.555e-05,9.14e-06,0.0,0 STARLINK-5024,1 53901U 22119R   22358.73877328  .00000914  00000-0  75550-4 0  9998,2 53901  53.2170 180.5206 0001973  53.4160 306.7014 15.08838343 14491,6917.885,95.438,541.115,538.386,0.0
53901.0,STARLINK-5024,PAYLOAD,2022-12-25 04:51:31,15.08844722,0.0001973,53.217,178.43900000000005,53.8838,306.2336,4.5575e-05,4.37e-06,0.0,0 STARLINK-5024,1 53901U 22119R   22359.20245046  .00000437  00000-0  45575-4 0  9991,2 53901  53.2170 178.4390 0001973  53.8838 306.2336 15.08844722 14981,6917.866,95.437,541.096,538.366,0.0
53901.0,STARLINK-5024,PAYLOAD,2022-12-25 19:10:00,15.08839855,0.0001928,53.2167,175.7619,53.1657,306.9512,-1.3819e-05,-5.08e-06,0.0,0 STARLINK-5024,1 53901U 22119R   22359.79861320 -.00000508  00000-0 -13819-4 0  9991,2 53901  53.2167 175.7619 0001928  53.1657 306.9512 15.08839855 14651,6917.880999999999,95.438,541.08,538.4119999999998,0.0
53901.0,STARLINK-5024,PAYLOAD,2022-12-25 20:45:23,15.08837158,0.0001887,53.2167,175.4649,51.1045,309.0115,-4.1133e-05,-9.43e-06,0.0,0 STARLINK-5024,1 53901U 22119R   22359.86485575 -.00000943  00000-0 -41133-4 0  9996,2 53901  53.2167 175.4649 0001887  51.1045 309.0115 15.08837158 15089,6917.889,95.438,541.059,538.4490000000002,0.0
53901.0,STARLINK-5024,PAYLOAD,2022-12-26 04:42:19,15.08835699,0.0001924,53.2167,173.9781,51.1822,308.9342,-3.6024e-05,-8.61e-06,0.0,0 STARLINK-5024,1 53901U 22119R   22360.19605681 -.00000861  00000-0 -36024-4 0  9998,2 53901  53.2167 173.9781 0001924  51.1822 308.9342 15.08835699 15138,6917.894,95.438,541.09,538.428,0.0
53901.0,STARLINK-5024,PAYLOAD,2022-12-26 20:36:10,15.08842359,0.0001976,53.2166,171.0044,50.8782,309.2385,-2.8348e-05,-7.39e-06,0.0,0 STARLINK-5024,1 53901U 22119R   22360.85845278 -.00000739  00000-0 -28348-4 0  9993,2 53901  53.2166 171.0044 0001976  50.8782 309.2385 15.08842359 15239,6917.873000000001,95.437,541.105,538.371,0.0
53901.0,STARLINK-5024,PAYLOAD,2022-12-26 22:11:33,15.08842369,0.000198,53.2166,170.707,50.9425,309.1743,-2.7593e-05,-7.27e-06,0.0,0 STARLINK-5024,1 53901U 22119R   22360.92469261 -.00000727  00000-0 -27593-4 0  9993,2 53901  53.2166 170.7070 0001980  50.9425 309.1743 15.08842369 14826,6917.873000000001,95.437,541.1080000000002,538.368,0.0
53901.0,STARLINK-5024,PAYLOAD,2022-12-27 10:54:38,15.08845658,0.0001988,53.2168,168.328,52.005,308.1121,-1.2877e-05,-4.93e-06,0.0,0 STARLINK-5024,1 53901U 22119R   22361.45460836 -.00000493  00000-0 -12877-4 0  9990,2 53901  53.2168 168.3280 0001988  52.0050 308.1121 15.08845658 15328,6917.863,95.437,541.1030000000002,538.3530000000002,0.0
53901.0,STARLINK-5024,PAYLOAD,2022-12-28 10:45:24,15.08842506,0.0002118,53.2169,163.868,54.9002,305.2189,4.981600000000001e-05,5.05e-06,0.0,0 STARLINK-5024,1 53901U 22119R   22362.44820436  .00000505  00000-0  49816-4 0  9991,2 53901  53.2169 163.8680 0002118  54.9002 305.2189 15.08842506 15058,6917.873000000001,95.437,541.203,538.273,0.0
53901.0,STARLINK-5024,PAYLOAD,2022-12-28 13:56:11,15.08840086,0.0002089,53.2166,163.2729,54.482,305.6366,3.3372e-05,2.43e-06,0.0,0 STARLINK-5024,1 53901U 22119R   22362.58068605  .00000243  00000-0  33372-4 0  9997,2 53901  53.2166 163.2729 0002089  54.4820 305.6366 15.08840086 15493,6917.88,95.438,541.19,538.3,0.0
53901.0,STARLINK-5024,PAYLOAD,2022-12-29 04:14:39,15.08839811,0.0002098,53.2166,160.5967,54.5349,305.5839,-1.8473e-05,-5.82e-06,0.0,0 STARLINK-5024,1 53901U 22119R   22363.17684665 -.00000582  00000-0 -18473-4 0  9996,2 53901  53.2166 160.5967 0002098  54.5349 305.5839 15.08839811 15582,6917.880999999999,95.438,541.197,538.295,0.0
53901.0,STARLINK-5024,PAYLOAD,2022-12-29 13:46:58,15.08832349,0.0001955,53.2165,158.8116,58.4281,301.6902,-1.0094e-06,-3.04e-06,0.0,0 STARLINK-5024,1 53901U 22119R   22363.57429021 -.00000304  00000-0 -10094-5 0  9997,2 53901  53.2165 158.8116 0001955  58.4281 301.6902 15.08832349 15224,6917.904,95.438,541.121,538.4159999999998,0.0
53901.0,STARLINK-5024,PAYLOAD,2022-12-30 04:05:26,15.08843392,0.0001875999999999,53.217,156.1357,58.7343,301.3833,-5.343e-05,-1.139e-05,0.0,0 STARLINK-5024,1 53901U 22119R   22364.17044409 -.00001139  00000-0 -53430-4 0  9994,2 53901  53.2170 156.1357 0001876  58.7343 301.3833 15.08843392 15312,6917.87,95.437,541.033,538.437,0.0
53901.0,STARLINK-5024,PAYLOAD,2022-12-30 16:48:30,15.08849111,0.000202,53.2168,153.7576,53.3882,306.7296,6.405e-05,7.32e-06,0.0,0 STARLINK-5024,1 53901U 22119R   22364.70035452  .00000732  00000-0  64050-4 0  9997,2 53901  53.2168 153.7576 0002020  53.3882 306.7296 15.08849111 15391,6917.853,95.437,541.115,538.32,0.0
53901.0,STARLINK-5024,PAYLOAD,2022-12-31 10:17:47,15.08817686,0.0001803,53.2175,150.4868,56.6069,303.5096,-8.1065e-05,-1.577e-05,0.0,0 STARLINK-5024,1 53901U 22119R   22365.42902081 -.00001577  00000-0 -81065-4 0  9993,2 53901  53.2175 150.4868 0001803  56.6069 303.5096 15.08817686 15506,6917.949000000001,95.439,541.061,538.566,0.0
53901.0,STARLINK-5024,PAYLOAD,2022-12-31 19:50:06,15.08817365,0.0001882,53.2177,148.7028,55.2732,304.8437,-0.00012136,-2.218e-05,0.0,0 STARLINK-5024,1 53901U 22119R   22365.82646787 -.00002218  00000-0 -12136-3 0  9990,2 53901  53.2177 148.7028 0001882  55.2732 304.8437 15.08817365 15984,6917.95,95.439,541.117,538.513,0.0
53901.0,STARLINK-5024,PAYLOAD,2023-01-01 10:08:34,15.08830606,0.0001896999999999,53.2179,146.0268,56.7597,303.3577,-0.00010271,-1.922e-05,0.0,0 STARLINK-5024,1 53901U 22119R   23001.42262496 -.00001922  00000-0 -10271-3 0  9994,2 53901  53.2179 146.0268 0001897  56.7597 303.3577 15.08830606 15650,6917.909000000002,95.438,541.086,538.462,0.0
53901.0,STARLINK-5024,PAYLOAD,2023-01-01 16:30:06,15.08836138,0.0001916999999999,53.2175,144.8378,57.3041,302.8135,-4.8237e-05,-1.056e-05,0.0,0 STARLINK-5024,1 53901U 22119R   23001.68758077 -.00001056  00000-0 -48237-4 0  9999,2 53901  53.2175 144.8378 0001917  57.3041 302.8135 15.08836138 15692,6917.892,95.438,541.0830000000002,538.431,0.0
53901.0,STARLINK-5024,PAYLOAD,2023-01-02 11:34:45,15.08824732,0.0001848,53.2175,141.2697,58.5792,301.5381,0.00015041,2.106e-05,0.0,0 STARLINK-5024,1 53901U 22119R   23002.48246542  .00002106  00000-0  15041-3 0  9998,2 53901  53.2175 141.2697 0001848  58.5792 301.5381 15.08824732 16233,6917.927,95.439,541.07,538.514,0.0
